<?xml version="1.0" encoding="UTF-8"?>
<kml xmlns="http://www.opengis.net/kml/2.2">
  <Document>
    <name><![CDATA[TECHNO->KODU]]></name>
    <description/>
    <Style id="icon-1899-DB4436-nodesc-normal">
      <IconStyle>
        <color>ff3644db</color>
        <scale>1</scale>
        <Icon>
          <href>https://www.gstatic.com/mapspro/images/stock/503-wht-blank_maps.png</href>
        </Icon>
        <hotSpot x="32" xunits="pixels" y="64" yunits="insetPixels"/>
      </IconStyle>
      <LabelStyle>
        <scale>0</scale>
      </LabelStyle>
      <BalloonStyle>
        <text><![CDATA[<h3>$[name]</h3>]]></text>
      </BalloonStyle>
    </Style>
    <Style id="icon-1899-DB4436-nodesc-highlight">
      <IconStyle>
        <color>ff3644db</color>
        <scale>1</scale>
        <Icon>
          <href>https://www.gstatic.com/mapspro/images/stock/503-wht-blank_maps.png</href>
        </Icon>
        <hotSpot x="32" xunits="pixels" y="64" yunits="insetPixels"/>
      </IconStyle>
      <LabelStyle>
        <scale>1</scale>
      </LabelStyle>
      <BalloonStyle>
        <text><![CDATA[<h3>$[name]</h3>]]></text>
      </BalloonStyle>
    </Style>
    <StyleMap id="icon-1899-DB4436-nodesc">
      <Pair>
        <key>normal</key>
        <styleUrl>#icon-1899-DB4436-nodesc-normal</styleUrl>
      </Pair>
      <Pair>
        <key>highlight</key>
        <styleUrl>#icon-1899-DB4436-nodesc-highlight</styleUrl>
      </Pair>
    </StyleMap>
    <Style id="line-1267FF-5000-nodesc-normal">
      <LineStyle>
        <color>ffff6712</color>
        <width>5</width>
      </LineStyle>
      <BalloonStyle>
        <text><![CDATA[<h3>$[name]</h3>]]></text>
      </BalloonStyle>
    </Style>
    <Style id="line-1267FF-5000-nodesc-highlight">
      <LineStyle>
        <color>ffff6712</color>
        <width>7.5</width>
      </LineStyle>
      <BalloonStyle>
        <text><![CDATA[<h3>$[name]</h3>]]></text>
      </BalloonStyle>
    </Style>
    <StyleMap id="line-1267FF-5000-nodesc">
      <Pair>
        <key>normal</key>
        <styleUrl>#line-1267FF-5000-nodesc-normal</styleUrl>
      </Pair>
      <Pair>
        <key>highlight</key>
        <styleUrl>#line-1267FF-5000-nodesc-highlight</styleUrl>
      </Pair>
    </StyleMap>
    <Style id="poly-097138-1200-77-normal">
      <LineStyle>
        <color>ff387109</color>
        <width>1.2</width>
      </LineStyle>
      <PolyStyle>
        <color>4d387109</color>
        <fill>1</fill>
        <outline>1</outline>
      </PolyStyle>
    </Style>
    <Style id="poly-097138-1200-77-highlight">
      <LineStyle>
        <color>ff387109</color>
        <width>1.8</width>
      </LineStyle>
      <PolyStyle>
        <color>4d387109</color>
        <fill>1</fill>
        <outline>1</outline>
      </PolyStyle>
    </Style>
    <StyleMap id="poly-097138-1200-77">
      <Pair>
        <key>normal</key>
        <styleUrl>#poly-097138-1200-77-normal</styleUrl>
      </Pair>
      <Pair>
        <key>highlight</key>
        <styleUrl>#poly-097138-1200-77-highlight</styleUrl>
      </Pair>
    </StyleMap>
    <Folder>
      <name>KODU</name>
      <Placemark>
        <name>Kodu</name>
        <description>minu kodu</description>
        <styleUrl>#poly-097138-1200-77</styleUrl>
        <Polygon>
          <outerBoundaryIs>
            <LinearRing>
              <tessellate>1</tessellate>
              <coordinates>
                24.8454402,59.4391167,0
                24.8455314,59.4389067,0
                24.8458855,59.4389653,0
                24.8457514,59.4391658,0
                24.8454402,59.4391167,0
              </coordinates>
            </LinearRing>
          </outerBoundaryIs>
        </Polygon>
      </Placemark>
    </Folder>
    <Folder>
      <name><![CDATA[KODU -> TECHNO]]></name>
      <Placemark>
        <name><![CDATA[KODU -> TECHNO]]></name>
        <styleUrl>#line-1267FF-5000-nodesc</styleUrl>
        <LineString>
          <tessellate>1</tessellate>
          <coordinates>
            24.84598,59.4392,0
            24.84601,59.43921,0
            24.84648,59.43929,0
            24.8466,59.43932,0
            24.84671,59.43937,0
            24.84774,59.43939,0
            24.84806,59.43898,0
            24.84818,59.43886,0
            24.84844,59.43851,0
            24.8487,59.43821,0
            24.84875,59.43814,0
            24.84949,59.43829,0
            24.85005,59.4384,0
            24.85063,59.43853,0
            24.85076,59.43855,0
            24.85121,59.43863,0
            24.85133,59.43849,0
            24.8515,59.43827,0
            24.85184,59.43785,0
            24.85184,59.43777,0
            24.85187,59.43768,0
            24.85193,59.43746,0
            24.85198,59.43737,0
            24.852,59.43733,0
            24.85202,59.43731,0
            24.85205,59.43729,0
            24.85207,59.43728,0
            24.85212,59.43722,0
            24.85231,59.43725,0
            24.85242,59.43727,0
            24.85268,59.43733,0
            24.85314,59.43744,0
            24.85339,59.43749,0
            24.85469,59.43775,0
            24.85573,59.43794,0
            24.85596,59.43796,0
            24.85602,59.43796,0
            24.8561,59.43796,0
            24.85616,59.43796,0
            24.85621,59.43796,0
            24.85627,59.43795,0
            24.85634,59.43794,0
            24.8564,59.43793,0
            24.85647,59.43791,0
            24.85652,59.43789,0
            24.85656,59.43787,0
            24.8568,59.43773,0
            24.85776,59.43644,0
            24.85802,59.43612,0
            24.85825,59.43582,0
            24.85852,59.43547,0
            24.85857,59.43542,0
            24.85927,59.43454,0
            24.85942,59.43434,0
            24.85949,59.43425,0
            24.85955,59.43419,0
            24.85961,59.4341,0
            24.85974,59.43394,0
            24.85972,59.43388,0
            24.85972,59.43387,0
            24.85975,59.43383,0
            24.85977,59.4338,0
            24.85978,59.43378,0
            24.85978,59.43376,0
            24.85977,59.43374,0
            24.85977,59.43372,0
            24.85976,59.43371,0
            24.85976,59.43369,0
            24.85975,59.43368,0
            24.85974,59.43367,0
            24.85973,59.43365,0
            24.85971,59.43364,0
            24.85968,59.43362,0
            24.85964,59.43361,0
            24.8596,59.43356,0
            24.85944,59.43353,0
            24.85804,59.43326,0
            24.85752,59.43315,0
            24.85717,59.43309,0
            24.8568,59.43302,0
            24.85603,59.43287,0
            24.8558,59.43283,0
            24.85516,59.43271,0
            24.85415,59.43254,0
            24.85293,59.43232,0
            24.85142,59.43207,0
            24.85099,59.432,0
            24.85038,59.43191,0
            24.84964,59.43177,0
            24.84874,59.43164,0
            24.84859,59.43161,0
            24.84836,59.43157,0
            24.84739,59.43139,0
            24.84694,59.43131,0
            24.84571,59.4311,0
            24.84569,59.43109,0
            24.84552,59.43106,0
            24.84362,59.43075,0
            24.84305,59.43065,0
            24.84019,59.43016,0
            24.8395,59.43005,0
            24.83901,59.42995,0
            24.83889,59.42993,0
            24.83836,59.42984,0
            24.8376,59.42971,0
            24.83636,59.42948,0
            24.83599,59.42942,0
            24.83585,59.42939,0
            24.83556,59.42933,0
            24.83543,59.42931,0
            24.83525,59.42928,0
            24.83508,59.42925,0
            24.83463,59.42919,0
            24.83394,59.42907,0
            24.83311,59.42892,0
            24.83261,59.42883,0
            24.82928,59.42825,0
            24.82927,59.42825,0
            24.82926,59.42825,0
            24.82893,59.42819,0
            24.82673,59.42781,0
            24.82652,59.42777,0
            24.82632,59.42773,0
            24.8262,59.42771,0
            24.82598,59.42767,0
            24.8258,59.42764,0
            24.82549,59.42759,0
            24.82525,59.42755,0
            24.82517,59.42754,0
            24.82489,59.42749,0
            24.82475,59.42747,0
            24.82455,59.42743,0
            24.8243,59.42739,0
            24.82421,59.42738,0
            24.82411,59.42736,0
            24.82396,59.42734,0
            24.8238,59.42732,0
            24.82363,59.42729,0
            24.82321,59.42725,0
            24.82297,59.42723,0
            24.82269,59.4272,0
            24.82234,59.42717,0
            24.82211,59.42714,0
            24.82194,59.42713,0
            24.82187,59.42712,0
            24.82181,59.42712,0
            24.82146,59.4271,0
            24.82091,59.42707,0
            24.82083,59.42706,0
            24.82023,59.42703,0
            24.81969,59.427,0
            24.81886,59.42695,0
            24.81844,59.42692,0
            24.81788,59.42689,0
            24.81463,59.42673,0
            24.81312,59.42672,0
            24.81168,59.42662,0
            24.8111,59.42659,0
            24.8099,59.42654,0
            24.80855,59.42644,0
            24.80709,59.42633,0
            24.80575,59.42626,0
            24.8037,59.42618,0
            24.80325,59.42617,0
            24.80261,59.42616,0
            24.80211,59.42614,0
            24.80162,59.42612,0
            24.80131,59.4261,0
            24.80069,59.42608,0
            24.80038,59.42606,0
            24.79955,59.42596,0
            24.79866,59.42584,0
            24.79799,59.42575,0
            24.7979,59.42573,0
            24.79787,59.42572,0
            24.79783,59.42572,0
            24.79772,59.4257,0
            24.79756,59.42569,0
            24.79626,59.42554,0
            24.7957,59.42547,0
            24.7947,59.42533,0
            24.7943,59.42528,0
            24.79405,59.42525,0
            24.79387,59.42522,0
            24.79337,59.42516,0
            24.79265,59.42505,0
            24.79208,59.42496,0
            24.79205,59.42495,0
            24.792,59.42494,0
            24.79173,59.4249,0
            24.79143,59.42486,0
            24.7911,59.42481,0
            24.79068,59.42475,0
            24.79016,59.42468,0
            24.78984,59.42463,0
            24.78953,59.42459,0
            24.78947,59.42458,0
            24.78925,59.42456,0
            24.78908,59.42453,0
            24.78892,59.42451,0
            24.78877,59.42449,0
            24.78847,59.42445,0
            24.78817,59.42441,0
            24.7878,59.42436,0
            24.78742,59.42431,0
            24.78729,59.42429,0
            24.78718,59.42428,0
            24.78707,59.42426,0
            24.78678,59.42421,0
            24.78662,59.42419,0
            24.7864,59.42416,0
            24.78607,59.4241,0
            24.78606,59.4241,0
            24.78562,59.42403,0
            24.78528,59.42398,0
            24.78503,59.42395,0
            24.78481,59.42392,0
            24.78466,59.4239,0
            24.78434,59.42386,0
            24.78432,59.42386,0
            24.78413,59.42384,0
            24.78393,59.42382,0
            24.78382,59.42381,0
            24.78372,59.4238,0
            24.78362,59.42379,0
            24.7835,59.42378,0
            24.7833,59.42377,0
            24.78316,59.42376,0
            24.78303,59.42375,0
            24.78283,59.42374,0
            24.78263,59.42373,0
            24.7825,59.42373,0
            24.78232,59.42372,0
            24.78206,59.42371,0
            24.78184,59.42371,0
            24.78164,59.4237,0
            24.78131,59.42369,0
            24.78111,59.42369,0
            24.78103,59.42369,0
            24.78062,59.42367,0
            24.78049,59.42367,0
            24.78028,59.42366,0
            24.78,59.42364,0
            24.77986,59.42363,0
            24.77967,59.42361,0
            24.77958,59.42361,0
            24.77948,59.4236,0
            24.77932,59.42358,0
            24.77917,59.42357,0
            24.77897,59.42355,0
            24.77876,59.42353,0
            24.77854,59.4235,0
            24.77834,59.42347,0
            24.77814,59.42345,0
            24.77794,59.42342,0
            24.77774,59.42339,0
            24.77758,59.42336,0
            24.77739,59.42333,0
            24.7773,59.42332,0
            24.77717,59.4233,0
            24.77705,59.42328,0
            24.77689,59.42325,0
            24.77678,59.42323,0
            24.77664,59.4232,0
            24.77648,59.42317,0
            24.77634,59.42314,0
            24.77618,59.42311,0
            24.77602,59.42308,0
            24.77585,59.42304,0
            24.77575,59.42301,0
            24.77553,59.42296,0
            24.77533,59.42291,0
            24.77517,59.42287,0
            24.775,59.42283,0
            24.77486,59.42279,0
            24.77469,59.42274,0
            24.77449,59.42268,0
            24.77402,59.42254,0
            24.77351,59.42239,0
            24.77323,59.42231,0
            24.77287,59.42221,0
            24.77218,59.42204,0
            24.77204,59.422,0
            24.77155,59.42187,0
            24.77121,59.42178,0
            24.77089,59.42168,0
            24.77072,59.42163,0
            24.77057,59.42157,0
            24.77041,59.42152,0
            24.77025,59.42146,0
            24.7701,59.42141,0
            24.77001,59.42137,0
            24.7699,59.42133,0
            24.7698,59.42129,0
            24.76972,59.42125,0
            24.76962,59.42121,0
            24.76953,59.42117,0
            24.76945,59.42113,0
            24.76934,59.42108,0
            24.76914,59.42097,0
            24.76903,59.42092,0
            24.76889,59.42085,0
            24.76878,59.42078,0
            24.76868,59.42072,0
            24.76857,59.42066,0
            24.7685,59.42061,0
            24.76835,59.42051,0
            24.76821,59.42041,0
            24.76811,59.42034,0
            24.768,59.42025,0
            24.76777,59.42006,0
            24.76753,59.41985,0
            24.76713,59.41947,0
            24.7665,59.41891,0
            24.76616,59.4186,0
            24.76561,59.4182,0
            24.76542,59.41807,0
            24.76541,59.41807,0
            24.76521,59.41792,0
            24.765,59.41777,0
            24.76458,59.4175,0
            24.76411,59.41721,0
            24.76377,59.41703,0
            24.76319,59.41668,0
            24.76273,59.41639,0
            24.76209,59.41599,0
            24.76156,59.41564,0
            24.76114,59.41534,0
            24.76058,59.41491,0
            24.76006,59.41449,0
            24.75938,59.41388,0
            24.75877,59.41336,0
            24.75855,59.41318,0
            24.75833,59.413,0
            24.75812,59.41283,0
            24.75778,59.41255,0
            24.75757,59.41239,0
            24.75732,59.4122,0
            24.75728,59.41217,0
            24.75707,59.41203,0
            24.75678,59.41183,0
            24.75637,59.41158,0
            24.75612,59.41144,0
            24.75567,59.41122,0
            24.7551,59.41091,0
            24.75439,59.41054,0
            24.75422,59.41046,0
            24.7539,59.41033,0
            24.7528,59.40992,0
            24.7519,59.4096,0
            24.74966,59.4088,0
            24.74863,59.40843,0
            24.74723,59.40793,0
            24.74569,59.4074,0
            24.74355,59.40668,0
            24.74033,59.40558,0
            24.73999,59.40547,0
            24.73939,59.40529,0
            24.73927,59.40524,0
            24.73874,59.40506,0
            24.73811,59.40483,0
            24.73792,59.40476,0
            24.73733,59.40458,0
            24.73653,59.4043,0
            24.73637,59.40426,0
            24.73613,59.40421,0
            24.73603,59.40419,0
            24.73565,59.4041,0
            24.73481,59.40391,0
            24.73462,59.40387,0
            24.73358,59.40364,0
            24.73237,59.40347,0
            24.73047,59.40324,0
            24.7304,59.40324,0
            24.72977,59.40316,0
            24.72953,59.40312,0
            24.72824,59.40296,0
            24.72802,59.40293,0
            24.727,59.4028,0
            24.72618,59.40268,0
            24.72562,59.40261,0
            24.72546,59.40259,0
            24.7248,59.4025,0
            24.7242,59.40244,0
            24.72371,59.4024,0
            24.7235,59.40238,0
            24.72324,59.40237,0
            24.72303,59.40236,0
            24.72286,59.40236,0
            24.72258,59.40236,0
            24.72237,59.40236,0
            24.72144,59.40241,0
            24.72048,59.40249,0
            24.72035,59.4025,0
            24.72011,59.40252,0
            24.71993,59.40253,0
            24.71975,59.40254,0
            24.71954,59.40255,0
            24.7194,59.40256,0
            24.71927,59.40256,0
            24.71901,59.40256,0
            24.71868,59.40256,0
            24.71834,59.40256,0
            24.71816,59.40256,0
            24.71798,59.40255,0
            24.71779,59.40254,0
            24.71746,59.40252,0
            24.7171,59.40249,0
            24.71683,59.40246,0
            24.71661,59.40244,0
            24.71647,59.40242,0
            24.71628,59.40241,0
            24.7161,59.40239,0
            24.71585,59.40238,0
            24.71541,59.40238,0
            24.71505,59.40238,0
            24.71463,59.40239,0
            24.71402,59.4024,0
            24.71362,59.40241,0
            24.7131,59.40241,0
            24.71288,59.40241,0
            24.71278,59.40241,0
            24.71269,59.40242,0
            24.71202,59.40243,0
            24.71157,59.40246,0
            24.71128,59.40248,0
            24.71111,59.40249,0
            24.71092,59.4025,0
            24.71071,59.40252,0
            24.71061,59.40253,0
            24.71053,59.40253,0
            24.70991,59.40262,0
            24.70886,59.40287,0
            24.70873,59.40291,0
            24.70848,59.40298,0
            24.70802,59.40311,0
            24.70783,59.40317,0
            24.70737,59.4033,0
            24.70724,59.40334,0
            24.70715,59.40336,0
            24.707,59.4034,0
            24.70665,59.40349,0
            24.7062,59.40362,0
            24.70446,59.40413,0
            24.70431,59.40418,0
            24.70352,59.40438,0
            24.70275,59.40461,0
            24.70254,59.40467,0
            24.70221,59.40476,0
            24.70192,59.40485,0
            24.70166,59.405,0
            24.70161,59.40503,0
            24.70157,59.40505,0
            24.70152,59.40508,0
            24.70145,59.40513,0
            24.70141,59.40516,0
            24.70139,59.40518,0
            24.70134,59.4054,0
            24.70175,59.40588,0
            24.7022,59.4064,0
            24.70271,59.40696,0
            24.70328,59.4076,0
            24.70369,59.40807,0
            24.70389,59.40826,0
            24.70436,59.40889,0
            24.7049,59.40943,0
            24.70499,59.40954,0
            24.70533,59.40995,0
            24.70553,59.41018,0
            24.70563,59.41028,0
            24.70605,59.41082,0
            24.7064,59.41125,0
            24.70669,59.41159,0
            24.70679,59.41173,0
            24.70699,59.412,0
            24.7071,59.41214,0
            24.70775,59.41288,0
            24.70751,59.41294,0
            24.7073,59.41298,0
            24.70711,59.41301,0
            24.70694,59.41305,0
            24.7068,59.41307,0
            24.70658,59.41311,0
            24.70609,59.4126,0
            24.70537,59.41178,0
          </coordinates>
        </LineString>
      </Placemark>
      <Placemark>
        <name>Vikerlase tänav 24, Tallinn</name>
        <styleUrl>#icon-1899-DB4436-nodesc</styleUrl>
        <Point>
          <coordinates>
            24.8459788,59.4392044,0
          </coordinates>
        </Point>
      </Placemark>
      <Placemark>
        <name>Tallinna Tööstushariduskeskus, Sõpruse puiestee, Tallinn</name>
        <styleUrl>#icon-1899-DB4436-nodesc</styleUrl>
        <Point>
          <coordinates>
            24.7053735,59.4117824,0
          </coordinates>
        </Point>
      </Placemark>
    </Folder>
  </Document>
</kml>
